[{"OBJECT_NAME":"PRAETORIAN SDA_610","OBJECT_ID":"2025-203J","EPOCH":"2026-03-09T13:44:25.913760","MEAN_MOTION":13.840113,"ECCENTRICITY":0.0007844,"INCLINATION":81.2976,"RA_OF_ASC_NODE":103.001,"ARG_OF_PERICENTER":103.3116,"MEAN_ANOMALY":256.8916,"EPHEMERIS_TYPE":0,"CLASSIFICATION_TYPE":"U","NORAD_CAT_ID":65573,"ELEMENT_SET_NO":999,"REV_AT_EPOCH":2491,"BSTAR":5.8921e-5,"MEAN_MOTION_DOT":7.7e-7,"MEAN_MOTION_DDOT":0},{"OBJECT_NAME":"FENGYUN 1C DEB","OBJECT_ID":"1999-025AME","EPOCH":"2026-03-09T23:44:06.734976","MEAN_MOTION":14.20090364,"ECCENTRICITY":0.03026122,"INCLINATION":98.6019,"RA_OF_ASC_NODE":83.3219,"ARG_OF_PERICENTER":92.0132,"MEAN_ANOMALY":271.5725,"EPHEMERIS_TYPE":0,"CLASSIFICATION_TYPE":"U","NORAD_CAT_ID":30599,"ELEMENT_SET_NO":999,"REV_AT_EPOCH":98405,"BSTAR":0.00076781647,"MEAN_MOTION_DOT":2.548e-5,"MEAN_MOTION_DDOT":0}]
